ONEWEB-0283             
1 49001U 21060AL  25246.04483693  .00000054  00000+0  10852-3 0  9996
2 49001  87.8993 286.0179 0001758  88.2419 271.8914 13.16594338201835
ONEWEB-0284             
1 49002U 21060AM  25246.03850833  .00000047  00000+0  90199-4 0  9995
2 49002  87.9009 285.9988 0001793 102.6729 257.4602 13.16594145201813
ONEWEB-0285             
1 49075U 21075A   25246.17985712 -.00000266  00000+0 -77591-3 0  9996
2 49075  87.8880  47.6880 0001654  94.1030 266.0287 13.12443164197560
ONEWEB-0286             
1 49076U 21075B   25246.16171409 -.00000304  00000+0 -88097-3 0  9992
2 49076  87.8893  47.7251 0001914  94.7043 265.4304 13.12440760196917
ONEWEB-0287             
1 49077U 21075C   25246.20385662 -.00000361  00000+0 -96360-3 0  9991
2 49077  87.9037  62.9555 0002196  96.7450 263.3932 13.17650630195830
ONEWEB-0288             
1 49078U 21075D   25246.21378645  .00000392  00000+0  10550-2 0  9994
2 49078  87.8879  47.6758 0001709  98.3918 261.7404 13.12442006197542
ONEWEB-0289             
1 49079U 21075E   25246.24253140  .00000047  00000+0  87755-4 0  9990
2 49079  87.9021  62.9746 0001433 101.5872 258.5421 13.17647682196410
ONEWEB-0290             
1 49080U 21075F   25246.21567284  .00000002  00000+0 -26778-4 0  9996
2 49080  87.9032  62.9334 0001122  97.9754 262.1505 13.17647807195826
ONEWEB-0291             
1 49081U 21075G   25246.20051130  .00000164  00000+0  38821-3 0  9993
2 49081  87.9038  62.9406 0001851 103.0395 257.0943 13.17649232195814
ONEWEB-0293             
1 49082U 21075H   25246.22581218 -.00000006  00000+0 -48531-4 0  9998
2 49082  87.9025  62.9659 0001609  94.2122 265.9194 13.17649393195848
ONEWEB-0294             
1 49083U 21075J   25246.14403683  .00000319  00000+0  85209-3 0  9996
2 49083  87.8881  47.6898 0001385 108.8924 251.2355 13.12442149196928
ONEWEB-0295             
1 49084U 21075K   25246.22494914  .00000070  00000+0  14685-3 0  9997
2 49084  87.9035  62.9687 0001914 101.2230 258.9117 13.17647166195809
ONEWEB-0296             
1 49085U 21075L   25246.20080611  .00000462  00000+0  12490-2 0  9997
2 49085  87.8879  47.6846 0001808 112.3546 247.7774 13.12444571196937
ONEWEB-0297             
1 49086U 21075M   25246.15538447 -.00000069  00000+0 -22773-3 0  9998
2 49086  87.8874  47.7316 0001799  94.1279 266.0055 13.12442486197531
ONEWEB-0298             
1 49087U 21075N   25246.22932000  .00001061  00000+0  26982-2 0  9996
2 49087  87.9026  62.9632 0001843  88.8736 271.2607 13.17644112195837
ONEWEB-0299             
1 49088U 21075P   25246.23086617 -.00000001  00000+0 -36565-4 0  9997
2 49088  87.9032  62.9183 0001960  92.9580 267.1776 13.17649176195813
ONEWEB-0300             
1 49089U 21075Q   25246.14727948  .00000192  00000+0  49731-3 0  9994
2 49089  87.8875  47.6858 0001862  83.3337 276.8004 13.12441574197553
