[{"OBJECT_NAME":"ONEWEB-0283","OBJECT_ID":"2021-060AL","EPOCH":"2025-09-03T01:04:33.910752","MEAN_MOTION":13.16594338,"ECCENTRICITY":0.0001758,"INCLINATION":87.8993,"RA_OF_ASC_NODE":286.0179,"ARG_OF_PERICENTER":88.2419,"MEAN_ANOMALY":271.8914,"EPHEMERIS_TYPE":0,"CLASSIFICATION_TYPE":"U","NORAD_CAT_ID":49001,"ELEMENT_SET_NO":999,"REV_AT_EPOCH":20183,"BSTAR":0.00010852023,"MEAN_MOTION_DOT":5.4e-7,"MEAN_MOTION_DDOT":0},{"OBJECT_NAME":"ONEWEB-0284","OBJECT_ID":"2021-060AM","EPOCH":"2025-09-03T00:55:27.119712","MEAN_MOTION":13.16594145,"ECCENTRICITY":0.00017938,"INCLINATION":87.9009,"RA_OF_ASC_NODE":285.9988,"ARG_OF_PERICENTER":102.6729,"MEAN_ANOMALY":257.4602,"EPHEMERIS_TYPE":0,"CLASSIFICATION_TYPE":"U","NORAD_CAT_ID":49002,"ELEMENT_SET_NO":999,"REV_AT_EPOCH":20181,"BSTAR":9.0199484e-5,"MEAN_MOTION_DOT":4.7e-7,"MEAN_MOTION_DDOT":0},{"OBJECT_NAME":"ONEWEB-0285","OBJECT_ID":"2021-075A","EPOCH":"2025-09-03T04:18:59.655168","MEAN_MOTION":13.12443164,"ECCENTRICITY":0.00016549,"INCLINATION":87.888,"RA_OF_ASC_NODE":47.688,"ARG_OF_PERICENTER":94.103,"MEAN_ANOMALY":266.0287,"EPHEMERIS_TYPE":0,"CLASSIFICATION_TYPE":"U","NORAD_CAT_ID":49075,"ELEMENT_SET_NO":999,"REV_AT_EPOCH":19756,"BSTAR":-0.00077590916,"MEAN_MOTION_DOT":-2.66e-6,"MEAN_MOTION_DDOT":0},{"OBJECT_NAME":"ONEWEB-0286","OBJECT_ID":"2021-075B","EPOCH":"2025-09-03T03:52:52.097376","MEAN_MOTION":13.1244076,"ECCENTRICITY":0.00019148,"INCLINATION":87.8893,"RA_OF_ASC_NODE":47.7251,"ARG_OF_PERICENTER":94.7043,"MEAN_ANOMALY":265.4304,"EPHEMERIS_TYPE":0,"CLASSIFICATION_TYPE":"U","NORAD_CAT_ID":49076,"ELEMENT_SET_NO":999,"REV_AT_EPOCH":19691,"BSTAR":-0.00088096901,"MEAN_MOTION_DOT":-3.04e-6,"MEAN_MOTION_DDOT":0},{"OBJECT_NAME":"ONEWEB-0287","OBJECT_ID":"2021-075C","EPOCH":"2025-09-03T04:53:33.211968","MEAN_MOTION":13.1765063,"ECCENTRICITY":0.0002196,"INCLINATION":87.9037,"RA_OF_ASC_NODE":62.9555,"ARG_OF_PERICENTER":96.745,"MEAN_ANOMALY":263.3932,"EPHEMERIS_TYPE":0,"CLASSIFICATION_TYPE":"U","NORAD_CAT_ID":49077,"ELEMENT_SET_NO":999,"REV_AT_EPOCH":19583,"BSTAR":-0.00096359616,"MEAN_MOTION_DOT":-3.61e-6,"MEAN_MOTION_DDOT":0},{"OBJECT_NAME":"ONEWEB-0288","OBJECT_ID":"2021-075D","EPOCH":"2025-09-03T05:07:51.149280","MEAN_MOTION":13.12442006,"ECCENTRICITY":0.00017095,"INCLINATION":87.8879,"RA_OF_ASC_NODE":47.6758,"ARG_OF_PERICENTER":98.3918,"MEAN_ANOMALY":261.7404,"EPHEMERIS_TYPE":0,"CLASSIFICATION_TYPE":"U","NORAD_CAT_ID":49078,"ELEMENT_SET_NO":999,"REV_AT_EPOCH":19754,"BSTAR":0.0010549616,"MEAN_MOTION_DOT":3.92e-6,"MEAN_MOTION_DDOT":0},{"OBJECT_NAME":"ONEWEB-0289","OBJECT_ID":"2021-075E","EPOCH":"2025-09-03T05:49:14.712960","MEAN_MOTION":13.17647682,"ECCENTRICITY":0.00014332,"INCLINATION":87.9021,"RA_OF_ASC_NODE":62.9746,"ARG_OF_PERICENTER":101.5872,"MEAN_ANOMALY":258.5421,"EPHEMERIS_TYPE":0,"CLASSIFICATION_TYPE":"U","NORAD_CAT_ID":49079,"ELEMENT_SET_NO":999,"REV_AT_EPOCH":19641,"BSTAR":8.7754589e-5,"MEAN_MOTION_DOT":4.7e-7,"MEAN_MOTION_DDOT":0},{"OBJECT_NAME":"ONEWEB-0290","OBJECT_ID":"2021-075F","EPOCH":"2025-09-03T05:10:34.133376","MEAN_MOTION":13.17647807,"ECCENTRICITY":0.00011227,"INCLINATION":87.9032,"RA_OF_ASC_NODE":62.9334,"ARG_OF_PERICENTER":97.9754,"MEAN_ANOMALY":262.1505,"EPHEMERIS_TYPE":0,"CLASSIFICATION_TYPE":"U","NORAD_CAT_ID":49080,"ELEMENT_SET_NO":999,"REV_AT_EPOCH":19582,"BSTAR":-2.6778103e-5,"MEAN_MOTION_DOT":2.0e-8,"MEAN_MOTION_DDOT":0},{"OBJECT_NAME":"ONEWEB-0291","OBJECT_ID":"2021-075G","EPOCH":"2025-09-03T04:48:44.176320","MEAN_MOTION":13.17649232,"ECCENTRICITY":0.00018518,"INCLINATION":87.9038,"RA_OF_ASC_NODE":62.9406,"ARG_OF_PERICENTER":103.0395,"MEAN_ANOMALY":257.0943,"EPHEMERIS_TYPE":0,"CLASSIFICATION_TYPE":"U","NORAD_CAT_ID":49081,"ELEMENT_SET_NO":999,"REV_AT_EPOCH":19581,"BSTAR":0.00038821095,"MEAN_MOTION_DOT":1.64e-6,"MEAN_MOTION_DDOT":0},{"OBJECT_NAME":"ONEWEB-0293","OBJECT_ID":"2021-075H","EPOCH":"2025-09-03T05:25:10.172352","MEAN_MOTION":13.17649393,"ECCENTRICITY":0.00016092,"INCLINATION":87.9025,"RA_OF_ASC_NODE":62.9659,"ARG_OF_PERICENTER":94.2122,"MEAN_ANOMALY":265.9194,"EPHEMERIS_TYPE":0,"CLASSIFICATION_TYPE":"U","NORAD_CAT_ID":49082,"ELEMENT_SET_NO":999,"REV_AT_EPOCH":19584,"BSTAR":-4.8530607e-5,"MEAN_MOTION_DOT":-6.0e-8,"MEAN_MOTION_DDOT":0},{"OBJECT_NAME":"ONEWEB-0294","OBJECT_ID":"2021-075J","EPOCH":"2025-09-03T03:27:24.782112","MEAN_MOTION":13.12442149,"ECCENTRICITY":0.00013854,"INCLINATION":87.8881,"RA_OF_ASC_NODE":47.6898,"ARG_OF_PERICENTER":108.8924,"MEAN_ANOMALY":251.2355,"EPHEMERIS_TYPE":0,"CLASSIFICATION_TYPE":"U","NORAD_CAT_ID":49083,"ELEMENT_SET_NO":999,"REV_AT_EPOCH":19692,"BSTAR":0.00085209464,"MEAN_MOTION_DOT":3.19e-6,"MEAN_MOTION_DDOT":0},{"OBJECT_NAME":"ONEWEB-0295","OBJECT_ID":"2021-075K","EPOCH":"2025-09-03T05:23:55.605696","MEAN_MOTION":13.17647166,"ECCENTRICITY":0.00019142,"INCLINATION":87.9035,"RA_OF_ASC_NODE":62.9687,"ARG_OF_PERICENTER":101.223,"MEAN_ANOMALY":258.9117,"EPHEMERIS_TYPE":0,"CLASSIFICATION_TYPE":"U","NORAD_CAT_ID":49084,"ELEMENT_SET_NO":999,"REV_AT_EPOCH":19580,"BSTAR":0.00014684753,"MEAN_MOTION_DOT":7.0e-7,"MEAN_MOTION_DDOT":0},{"OBJECT_NAME":"ONEWEB-0296","OBJECT_ID":"2021-075L","EPOCH":"2025-09-03T04:49:09.647904","MEAN_MOTION":13.12444571,"ECCENTRICITY":0.00018087,"INCLINATION":87.8879,"RA_OF_ASC_NODE":47.6846,"ARG_OF_PERICENTER":112.3546,"MEAN_ANOMALY":247.7774,"EPHEMERIS_TYPE":0,"CLASSIFICATION_TYPE":"U","NORAD_CAT_ID":49085,"ELEMENT_SET_NO":999,"REV_AT_EPOCH":19693,"BSTAR":0.0012489924,"MEAN_MOTION_DOT":4.62e-6,"MEAN_MOTION_DDOT":0},{"OBJECT_NAME":"ONEWEB-0297","OBJECT_ID":"2021-075M","EPOCH":"2025-09-03T03:43:45.218208","MEAN_MOTION":13.12442486,"ECCENTRICITY":0.00017998,"INCLINATION":87.8874,"RA_OF_ASC_NODE":47.7316,"ARG_OF_PERICENTER":94.1279,"MEAN_ANOMALY":266.0055,"EPHEMERIS_TYPE":0,"CLASSIFICATION_TYPE":"U","NORAD_CAT_ID":49086,"ELEMENT_SET_NO":999,"REV_AT_EPOCH":19753,"BSTAR":-0.00022772689,"MEAN_MOTION_DOT":-6.9e-7,"MEAN_MOTION_DDOT":0},{"OBJECT_NAME":"ONEWEB-0298","OBJECT_ID":"2021-075N","EPOCH":"2025-09-03T05:30:13.248000","MEAN_MOTION":13.17644112,"ECCENTRICITY":0.00018435,"INCLINATION":87.9026,"RA_OF_ASC_NODE":62.9632,"ARG_OF_PERICENTER":88.8736,"MEAN_ANOMALY":271.2607,"EPHEMERIS_TYPE":0,"CLASSIFICATION_TYPE":"U","NORAD_CAT_ID":49087,"ELEMENT_SET_NO":999,"REV_AT_EPOCH":19583,"BSTAR":0.0026981632,"MEAN_MOTION_DOT":1.061e-5,"MEAN_MOTION_DDOT":0},{"OBJECT_NAME":"ONEWEB-0299","OBJECT_ID":"2021-075P","EPOCH":"2025-09-03T05:32:26.837088","MEAN_MOTION":13.17649176,"ECCENTRICITY":0.00019605,"INCLINATION":87.9032,"RA_OF_ASC_NODE":62.9183,"ARG_OF_PERICENTER":92.958,"MEAN_ANOMALY":267.1776,"EPHEMERIS_TYPE":0,"CLASSIFICATION_TYPE":"U","NORAD_CAT_ID":49088,"ELEMENT_SET_NO":999,"REV_AT_EPOCH":19581,"BSTAR":-3.6565216e-5,"MEAN_MOTION_DOT":-1.0e-8,"MEAN_MOTION_DDOT":0},{"OBJECT_NAME":"ONEWEB-0300","OBJECT_ID":"2021-075Q","EPOCH":"2025-09-03T03:32:04.947072","MEAN_MOTION":13.12441574,"ECCENTRICITY":0.00018626,"INCLINATION":87.8875,"RA_OF_ASC_NODE":47.6858,"ARG_OF_PERICENTER":83.3337,"MEAN_ANOMALY":276.8004,"EPHEMERIS_TYPE":0,"CLASSIFICATION_TYPE":"U","NORAD_CAT_ID":49089,"ELEMENT_SET_NO":999,"REV_AT_EPOCH":19755,"BSTAR":0.0004973105,"MEAN_MOTION_DOT":1.92e-6,"MEAN_MOTION_DDOT":0}]
